NORAD_CAT_ID,EPOCH,MEAN_MOTION,ECCENTRICITY,INCLINATION,RA_OF_ASC_NODE,ARG_OF_PERICENTER,MEAN_ANOMALY,APOAPSIS,PERIAPSIS,BSTAR,COUNTRY_CODE,RCS_SIZE,NAME,LINE1,LINE2
60968,2025-08-09T12:05:36.134016,14.17913045,0.00541,89.015,310.3721,118.0382,242.6293,871.43,793.412,0.00021118,PRC,SMALL,0 CZ-6A DEB,1 60968U 24140LT  25221.50389044  .00000453  00000-0  21118-3 0  9993,2 60968  89.0150 310.3721 0054100 118.0382 242.6293 14.17913045 50877
60969,2025-08-09T05:30:28.761120,14.18037635,0.0053757,89.0156,310.4079,133.4998,227.0679,870.759,793.239,0.00011272,PRC,MEDIUM,0 CZ-6A DEB,1 60969U 24140LU  25221.22949955  .00000249  00000-0  11272-3 0  9999,2 60969  89.0156 310.4079 0053757 133.4998 227.0679 14.18037635 50858
60970,2025-08-09T05:21:36.267552,14.1757137,0.006018,89.0076,310.1302,106.056,254.7267,876.98,790.18,0.00035474,PRC,SMALL,0 CZ-6A DEB,1 60970U 24140LV  25221.22333643  .00000748  00000-0  35474-3 0  9996,2 60970  89.0076 310.1302 0060180 106.0560 254.7267 14.17571370 50854
60971,2025-08-08T17:38:15.230400,14.57357414,0.0096001,89.0586,309.8989,245.4837,113.6342,769.689,633.754,0.00062772,PRC,SMALL,0 CZ-6A DEB,1 60971U 24140LW  25220.73489850  .00003044  00000-0  62772-3 0  9997,2 60971  89.0586 309.8989 0096001 245.4837 113.6342 14.57357414 51531
60972,2025-08-08T17:54:27.093888,14.24439572,0.0035875,89.0064,309.748,138.882,221.5086,836.168,784.591,0.00070217,PRC,SMALL,0 CZ-6A DEB,1 60972U 24140LX  25220.74614692  .00001650  00000-0  70217-3 0  9997,2 60972  89.0064 309.7480 0035875 138.8820 221.5086 14.24439572 50136
60974,2025-08-08T16:51:08.147232,14.41409173,0.0069339,88.7362,296.6738,312.0267,47.5045,803.301,704.396,0.0004221,PRC,SMALL,0 CZ-6A DEB,1 60974U 24140LZ  25220.70217763  .00001422  00000-0  42210-3 0  9992,2 60974  88.7362 296.6738 0069339 312.0267  47.5045 14.41409173 51256
60975,2025-08-08T12:02:38.123232,14.56791719,0.0128887,88.9732,305.9849,252.8148,105.892,794.828,612.28,0.0002026,PRC,SMALL,0 CZ-6A DEB,1 60975U 24140MA  25220.50183013  .00001032  00000-0  20260-3 0  9999,2 60975  88.9732 305.9849 0128887 252.8148 105.8920 14.56791719 51559
60976,2025-08-08T16:59:14.507520,14.5050659,0.0046321,88.9549,306.5063,334.109,25.7799,756.894,691.099,0.0046596,PRC,SMALL,0 CZ-6A DEB,1 60976U 24140MB  25220.70780680  .00018534  00000-0  46596-2 0  9999,2 60976  88.9549 306.5063 0046321 334.1090  25.7799 14.50506590 51136
60979,2025-08-08T18:02:39.261120,14.68922571,0.0076138,89.0347,308.5379,239.951,119.4141,718.133,610.89,0.0020971,PRC,SMALL,0 CZ-6A DEB,1 60979U 24140ME  25220.75184330  .00012852  00000-0  20971-2 0  9993,2 60979  89.0347 308.5379 0076138 239.9510 119.4141 14.68922571 51847
60980,2025-08-08T17:31:18.873984,14.37587976,0.0008694,88.9518,306.6137,270.6438,89.3765,772.692,760.269,0.0010119,PRC,SMALL,0 CZ-6A DEB,1 60980U 24140MF  25220.73007956  .00003049  00000-0  10119-2 0  9992,2 60980  88.9518 306.6137 0008694 270.6438  89.3765 14.37587976 50951
60981,2025-08-09T05:08:36.449664,14.08104592,0.0109478,88.8523,304.2677,118.9119,242.3099,945.173,786.561,0.00059482,PRC,SMALL,0 CZ-6A DEB,1 60981U 24140MG  25221.21431076  .00001085  00000-0  59482-3 0  9996,2 60981  88.8523 304.2677 0109478 118.9119 242.3099 14.08104592 50084
60982,2025-08-08T18:15:10.446048,14.34322143,0.0041985,89.2879,321.4338,175.4526,184.7062,807.364,747.28,0.0016757,PRC,SMALL,0 CZ-6A DEB,1 60982U 24140MH  25220.76053757  .00004767  00000-0  16757-2 0  9999,2 60982  89.2879 321.4338 0041985 175.4526 184.7062 14.34322143 50371
60983,2025-08-08T11:54:05.498208,14.4137387,0.0051965,88.7851,298.8485,288.5796,70.9765,791.027,716.903,0.00038309,PRC,SMALL,0 CZ-6A DEB,1 60983U 24140MJ  25220.49589697  .00001275  00000-0  38309-3 0  9996,2 60983  88.7851 298.8485 0051965 288.5796  70.9765 14.41373870 50670
60984,2025-08-08T17:15:02.846016,14.42021955,0.0061962,88.9396,305.5014,229.2909,130.2903,796.006,707.649,0.00012223,PRC,SMALL,0 CZ-6A DEB,1 60984U 24140MK  25220.71878294  .00000425  00000-0  12223-3 0  9999,2 60984  88.9396 305.5014 0061962 229.2909 130.2903 14.42021955 50643
60985,2025-08-08T23:31:30.888768,15.22185924,0.0131085,89.0807,308.2514,147.0281,213.9229,589.403,409.098,0.0030587,PRC,SMALL,0 CZ-6A DEB,1 60985U 24140ML  25220.98021862  .00089897  00000-0  30587-2 0  9992,2 60985  89.0807 308.2514 0131085 147.0281 213.9229 15.22185924 52808
60986,2025-08-08T18:08:03.090048,14.01501605,0.0140145,89.3978,327.3542,175.1905,185.0661,990.442,786.762,0.00023393,PRC,SMALL,0 CZ-6A DEB,1 60986U 24140MM  25220.75559132  .00000398  00000-0  23393-3 0  9991,2 60986  89.3978 327.3542 0140145 175.1905 185.0661 14.01501605 49243
60987,2025-08-09T05:13:59.405088,14.17963793,0.0052057,89.0042,309.9157,129.6379,230.9421,869.784,794.714,5.8923e-05,PRC,SMALL,0 CZ-6A DEB,1 60987U 24140MN  25221.21804867  .00000137  00000-0  58923-4 0  9991,2 60987  89.0042 309.9157 0052057 129.6379 230.9421 14.17963793 49953
60988,2025-08-08T18:16:15.820608,13.96015089,0.0155797,89.0937,315.089,169.7384,190.7037,1021.139,794.119,0.00049673,PRC,SMALL,0 CZ-6A DEB,1 60988U 24140MP  25220.76129422  .00000767  00000-0  49673-3 0  9998,2 60988  89.0937 315.0890 0155797 169.7384 190.7037 13.96015089 49111
61074,2025-08-08T16:50:18.576096,14.56052364,0.0127144,88.9994,307.2758,260.627,98.0547,796.021,615.881,0.00023599,PRC,SMALL,0 CZ-6A DEB,1 61074U 24140MQ  25220.70160389  .00001176  00000-0  23599-3 0  9990,2 61074  88.9994 307.2758 0127144 260.6270  98.0547 14.56052364 51062
61075,2025-08-08T18:03:44.251200,14.62665619,0.0149432,89.0709,310.0404,241.7891,116.8167,790.122,579.042,0.00029505,PRC,SMALL,0 CZ-6A DEB,1 61075U 24140MR  25220.75259550  .00001781  00000-0  29505-3 0  9990,2 61075  89.0709 310.0404 0149432 241.7891 116.8167 14.62665619 51294
61076,2025-08-09T05:05:42.929952,14.19138757,0.0051897,89.0244,310.7857,109.4597,251.221,865.668,790.87,0.00042262,PRC,SMALL,0 CZ-6A DEB,1 61076U 24140MS  25221.21230243  .00000910  00000-0  42262-3 0  9999,2 61076  89.0244 310.7857 0051897 109.4597 251.2210 14.19138757 49894
61077,2025-08-08T15:58:11.152704,14.48378524,0.007592,88.5943,289.7916,225.2,134.3018,784.924,676.979,0.00038635,PRC,SMALL,0 CZ-6A DEB,1 61077U 24140MT  25220.66540686  .00001516  00000-0  38635-3 0  9995,2 61077  88.5943 289.7916 0075920 225.2000 134.3018 14.48378524 50210
61078,2025-08-09T00:14:01.592160,14.50397086,0.0091872,89.0523,309.9658,269.1645,89.9034,789.606,659.102,0.00038822,PRC,SMALL,0 CZ-6A DEB,1 61078U 24140MU  25221.00974065  .00001615  00000-0  38822-3 0  9995,2 61078  89.0523 309.9658 0091872 269.1645  89.9034 14.50397086 50338
61079,2025-08-09T04:20:39.408288,14.30244617,0.0056614,88.8538,302.6132,6.9462,353.2505,831.502,750.328,0.00013666,PRC,SMALL,0 CZ-6A DEB,1 61079U 24140MV  25221.18101167  .00000375  00000-0  13666-3 0  9991,2 61079  88.8538 302.6132 0056614   6.9462 353.2505 14.30244617 49728
61080,2025-08-08T18:25:58.746720,14.38676932,0.0021558,89.2596,320.0773,215.2705,144.7071,778.27,747.481,0.0018707,PRC,SMALL,0 CZ-6A DEB,1 61080U 24140MW  25220.76804105  .00005764  00000-0  18707-2 0  9995,2 61080  89.2596 320.0773 0021558 215.2705 144.7071 14.38676932 49883
61081,2025-08-09T04:46:02.824320,14.59993164,0.0116386,88.9882,306.482,240.159,118.8014,775.498,610.898,0.00056069,PRC,SMALL,0 CZ-6A DEB,1 61081U 24140MX  25221.19864380  .00002975  00000-0  56069-3 0  9990,2 61081  88.9882 306.4820 0116386 240.1590 118.8014 14.59993164 50706
61082,2025-08-08T16:39:27.489888,13.9738008,0.0148121,88.9821,310.423,153.1541,207.7402,1010.731,795.036,0.00011706,PRC,SMALL,0 CZ-6A DEB,1 61082U 24140MY  25220.69406817  .00000195  00000-0  11706-3 0  9993,2 61082  88.9821 310.4230 0148121 153.1541 207.7402 13.97380080 48592
61083,2025-08-08T17:48:33.192576,14.43452544,0.0095684,88.8989,303.5783,299.5014,59.6672,815.293,678.939,7.2004e-05,PRC,SMALL,0 CZ-6A DEB,1 61083U 24140MZ  25220.74205084  .00000272  00000-0  72004-4 0  9998,2 61083  88.8989 303.5783 0095684 299.5014  59.6672 14.43452544 50131
61084,2025-08-08T17:24:46.970496,14.12165301,0.0094169,88.9998,310.3406,146.0467,214.6795,920.059,783.888,0.0010946,PRC,SMALL,0 CZ-6A DEB,1 61084U 24140NA  25220.72554364  .00002109  00000-0  10946-2 0  9991,2 61084  88.9998 310.3406 0094169 146.0467 214.6795 14.12165301 49018
61085,2025-08-08T23:48:54.043488,14.18278691,0.0052704,89.1529,316.2659,119.4588,241.1874,869.178,793.186,0.00023754,PRC,SMALL,0 CZ-6A DEB,1 61085U 24140NB  25220.99229217  .00000510  00000-0  23754-3 0  9993,2 61085  89.1529 316.2659 0052704 119.4588 241.1874 14.18278691 49245
61086,2025-08-09T00:37:43.619520,14.8164953,0.0198458,89.0406,307.472,203.4161,155.7935,763.09,485.159,0.00076363,PRC,SMALL,0 CZ-6A DEB,1 61086U 24140NC  25221.02619930  .00008495  00000-0  76363-3 0  9998,2 61086  89.0406 307.4720 0198458 203.4161 155.7935 14.81649530 51322
61087,2025-08-08T23:03:57.763872,14.51504007,0.0094358,88.9164,303.7956,253.8452,105.2354,787.726,653.759,0.00033471,PRC,SMALL,0 CZ-6A DEB,1 61087U 24140ND  25220.96108523  .00001433  00000-0  33471-3 0  9990,2 61087  88.9164 303.7956 0094358 253.8452 105.2354 14.51504007 50418
61088,2025-08-09T05:44:03.989184,14.21436561,0.0041369,88.9919,309.2138,109.6101,250.9562,850.281,790.721,0.00038428,PRC,SMALL,0 CZ-6A DEB,1 61088U 24140NE  25221.23893506  .00000861  00000-0  38428-3 0  9995,2 61088  88.9919 309.2138 0041369 109.6101 250.9562 14.21436561 49270
61089,2025-08-08T17:26:05.471808,14.14809441,0.0069693,89.0741,313.1461,125.9774,234.7903,893.288,792.636,0.00037173,PRC,SMALL,0 CZ-6A DEB,1 61089U 24140NF  25220.72645222  .00000748  00000-0  37173-3 0  9999,2 61089  89.0741 313.1461 0069693 125.9774 234.7903 14.14809441 48985
61090,2025-08-09T11:38:03.300288,14.62158604,0.0136761,88.7567,295.8501,255.9634,102.6345,782.827,589.602,0.0011933,PRC,SMALL,0 CZ-6A DEB,1 61090U 24140NG  25221.48476042  .00006883  00000-0  11933-2 0  9998,2 61090  88.7567 295.8501 0136761 255.9634 102.6345 14.62158604 50639
